SYNCOM 2 (A 26)
1 00634U 63031A   23209.97769007 -.00000157  00000+0  00000+0 0  9999
2 00634  32.1843 315.1809 0010295 180.2567 246.7755  1.00259944219786
SYNCOM 3
1 00858U 64047A   23210.57603819 -.00000036  00000+0  00000+0 0  9997
2 00858   4.3738  74.1536 0003643  86.8897 161.1620  1.00283572178164
INTELSAT 1-F1
1 01317U 65028A   23209.61397764  .00000123  00000+0  00000+0 0  9996
2 01317   4.5724  73.3297 0006721  88.0373 223.2575  1.00208603116602
1 40044U 14033AL  23211.03788262  .00001963  00000+0  28175-3 0  9992
2 40044  97.6709  23.2182 0055240 277.7861  81.7080 14.76544780489982
1 41873U 16062E   23210.38073673  .00019014  00000+0  47137-3 0  9992
2 41873  51.6741 238.7262 0005230 308.1799  51.8715 15.40395070371749